OSCAR 7 (AO-7)          
1 07530U 74089B   17258.89147755 -.00000021  00000-0  14373-3 0  9997
2 07530 101.6414 225.8233 0012147 144.4777 270.0323 12.53628812960222
UOSAT 2 (UO-11)         
1 14781U 84021B   17258.72069799  .00000144  00000-0  23987-4 0  9990
2 14781  97.6885 301.0564 0007032 261.4773  98.5644 14.82930110803766
LUSAT (LO-19)           
1 20442U 90005G   17258.85349480  .00000001  00000-0  16375-4 0  9997
2 20442  98.5793 194.4640 0010729 237.6012 122.4134 14.32869857444544
EYESAT-1 (AO-27)        
1 22825U 93061C   17259.50307195  .00000013  00000-0  22834-4 0  9999
2 22825  98.8227 226.2540 0009470  67.5996 292.6188 14.30006179250453
ITAMSAT (IO-26)         
1 22826U 93061D   17259.51313726  .00000032  00000-0  29758-4 0  9991
2 22826  98.8169 226.3355 0009922  58.6291 301.5860 14.30335783250638
RADIO ROSTO (RS-15)     
1 23439U 94085A   17258.84099944 -.00000054  00000-0 -31241-3 0  9992
2 23439  64.8151  72.5415 0165390 230.1582 232.2681 11.27566362935793
JAS-2 (FO-29)           
1 24278U 96046B   17258.89536894 -.00000002  00000-0  31139-4 0  9997
2 24278  98.5484 130.0258 0351344 102.2999 261.7704 13.53078432 41147
TECHSAT 1B (GO-32)      
1 25397U 98043D   17258.85999806 -.00000009  00000-0  14925-4 0  9992
2 25397  98.6156 199.3105 0002426  92.0406 268.1050 14.23628537996474
ISS (ZARYA)             
1 25544U 98067A   17258.66207433  .00002352  00000-0  42668-4 0  9996
2 25544  51.6434 307.2969 0003696 276.6985 227.2383 15.54196035 75826
PCSAT (NO-44)           
1 26931U 01043C   17258.93121376 -.00000022  00000-0  23516-4 0  9990
2 26931  67.0506 217.0603 0006487 257.0213 103.0164 14.30473647833256
SAUDISAT 1C (SO-50)     
1 27607U 02058C   17259.30864965  .00000120  00000-0  37929-4 0  9999
2 27607  64.5553 207.1041 0032959  50.9267 309.4759 14.75361913792559
CUTE-1 (CO-55)          
1 27844U 03031E   17259.54420840  .00000086  00000-0  58687-4 0  9995
2 27844  98.6907 267.2242 0010943  84.0033 276.2391 14.22059651737301
CUBESAT XI-IV (CO-57)   
1 27848U 03031J   17259.00576408  .00000059  00000-0  46619-4 0  9994
2 27848  98.6999 266.9903 0010841  94.1161 266.1255 14.21671338737103
MOZHAYETS 4 (RS-22)     
1 27939U 03042A   17259.53371625  .00000169  00000-0  38880-4 0  9992
2 27939  97.9524  41.3991 0011745 299.3533 133.9128 14.66599662746702
CUBESAT XI-V (CO-58)    
1 28895U 05043F   17258.90615536  .00000226  00000-0  52307-4 0  9993
2 28895  97.8756  57.0727 0016095 212.7075 147.3132 14.63436523633526
CUTE-1.7+APD II (CO-65) 
1 32785U 08021C   17258.82803148  .00000371  00000-0  46133-4 0  9995
2 32785  97.5629 278.9443 0012028 223.1213 136.9063 14.87949657508303
DELFI-C3 (DO-64)        
1 32789U 08021G   17258.91234430  .00003211  00000-0  22903-3 0  9995
2 32789  97.5508 315.2046 0013565 148.7451 211.4585 15.05179018510410
SEEDS II (CO-66)        
1 32791U 08021J   17258.75401382  .00000622  00000-0  69368-4 0  9992
2 32791  97.5586 283.5145 0012743 206.0832 153.9746 14.90308501508559
YUBILEINY (RS-30)       
1 32953U 08025A   17259.47253726 -.00000003  00000-0 -97024-4 0  9998
2 32953  82.5064 182.8954 0020219  84.9969 275.3418 12.43079170422760
PRISM (HITOMI)          
1 33493U 09002B   17259.54622713  .00000350  00000-0  36958-4 0  9990
2 33493  98.1548 145.7783 0015762 136.2067 224.0397 14.95804494469431
KKS-1 (KISEKI)          
1 33499U 09002H   17259.16976754  .00000181  00000-0  34766-4 0  9998
2 33499  98.3410  67.2671 0010500  85.7104 274.5303 14.75226705464776
SWISSCUBE               
1 35932U 09051B   17258.91528489  .00000200  00000-0  56268-4 0  9999
2 35932  98.5087  39.1093 0007085 340.9911  19.1020 14.56051173423525
BEESAT                  
1 35933U 09051C   17258.89428947  .00000180  00000-0  51615-4 0  9993
2 35933  98.5124  40.4573 0005601 358.2006   1.9169 14.56166687423547
ITUPSAT 1               
1 35935U 09051E   17259.34519721  .00000177  00000-0  51768-4 0  9992
2 35935  98.5238  41.1718 0007740 346.8623  13.2371 14.55357002423495
XIWANG-1 (HOPE-1)       
1 36122U 09072B   17259.54631279 -.00000011  00000-0  82170-4 0  9998
2 36122 100.0960 281.7948 0007809  29.3701 330.7850 13.16341156372646
TISAT 1                 
1 36799U 10035E   17259.31403573  .00000746  00000-0  82377-4 0  9991
2 36799  98.0723  23.9464 0013019  33.4886 326.7152 14.90497962389354
JUGNU                   
1 37839U 11058B   17259.20190178  .00000353  00000-0  46416-4 0  9993
2 37839  19.9606 258.6146 0019173 106.4124 338.3192 14.12593240306586
SRMSAT                  
1 37841U 11058D   17259.47567241  .00000347  00000-0  45659-4 0  9995
2 37841  19.9720 300.5173 0011888   4.9447 131.4410 14.10583570306182
M-CUBED & EXP-1 PRIME   
1 37855U 11061F   17258.71908145  .00002195  00000-0  12154-3 0  9998
2 37855 101.7056 176.1183 0179758 173.9951 186.3474 15.03345280320390
HORYU 2                 
1 38340U 12025D   17258.96676515  .00000340  00000-0  58263-4 0  9991
2 38340  98.3785 266.0964 0011843  10.0343 350.1099 14.75394809286677
STRAND-1                
1 39090U 13009E   17258.80748026  .00000045  00000-0  31140-4 0  9994
2 39090  98.5464 103.3621 0009978  37.3234 322.8642 14.34983007238458
SOMP                    
1 39134U 13015E   17258.87341444  .00002652  00000-0  13666-3 0  9998
2 39134  64.8646 293.6746 0039379 249.4197 110.2703 15.18127887242864
BEESAT-3                
1 39135U 13015F   17258.59211697  .00001830  00000-0  10421-3 0  9997
2 39135  64.8690 304.4877 0034286 269.7662  89.9534 15.15834449242628
BEESAT-2                
1 39136U 13015G   17259.12820033  .00001779  00000-0  10297-3 0  9991
2 39136  64.8695 304.8331 0034309 269.6379  90.0815 15.15343090243053
CUBEBUG-1 (CAPITAN BETO)
1 39153U 13018D   17259.21627311  .00000361  00000-0  54397-4 0  9993
2 39153  97.9855 351.0300 0018383 112.4159 247.9002 14.80232419237059
ZACUBE-1 (TSHEPISOSAT)  
1 39417U 13066B   17258.91415694  .00000323  00000-0  47365-4 0  9999
2 39417  97.6217 296.7185 0058533 334.5072  25.3256 14.80766775206208
TRITON-1                
1 39427U 13066M   17258.94515916  .00000343  00000-0  62632-4 0  9997
2 39427  97.6375 268.2191 0115594  58.4640 302.7794 14.67509193204165
GOMX 1                  
1 39430U 13066Q   17259.52948688  .00000305  00000-0  63911-4 0  9991
2 39430  97.6706 251.6289 0153211 114.3366 247.3918 14.58916727203252
HUMSAT-D                
1 39433U 13066T   17258.69059394  .00000557  00000-0  60754-4 0  9999
2 39433  97.6441 319.0996 0029582 276.3560  83.4290 14.91539782206325
EAGLE 2                 
1 39436U 13066W   17258.83488467  .00050526  00000-0  11828-2 0  9992
2 39436  97.7115   9.4687 0009139 120.9468 239.2678 15.41919635210591
CUBEBUG-2 (LO-74)       
1 39440U 13066AA  17258.64393174  .00000357  00000-0  56960-4 0  9991
2 39440  97.6234 284.9380 0080845   8.0182 352.2299 14.75507352205436
FUNCUBE-1 (AO-73)       
1 39444U 13066AE  17258.71355939  .00000400  00000-0  56223-4 0  9991
2 39444  97.6232 297.6982 0057628 331.5784  28.2290 14.81511618205014
UWE-3                   
1 39446U 13066AG  17258.66286574  .00000336  00000-0  51567-4 0  9999
2 39446  97.6214 290.4061 0070121 352.0026   8.0061 14.78039974204562
SPROUT                  
1 39770U 14029E   17259.52036635  .00001361  00000-0  16034-3 0  9994
2 39770  97.8751 358.0151 0010070  36.7617 323.4279 14.86391491179706
UNISAT-6                
1 40012U 14033C   17258.91803488  .00000303  00000-0  52959-4 0  9992
2 40012  97.8431 139.7400 0058851   3.7410 356.4227 14.73669269174304
DUCHIFAT-1              
1 40021U 14033M   17259.43260026  .00000861  00000-0  95085-4 0  9991
2 40021  97.9131 172.7105 0013417   7.5072 352.6344 14.89992011176183
FUNCUBE-3 (EO-79)       
1 40025U 14033R   17259.30329141  .00000581  00000-0  68537-4 0  9996
2 40025  97.9064 170.2268 0012946  12.4375 347.7159 14.88492293176042
CHUBUSAT-1              
1 40300U 14070C   17259.46906429  .00001518  00000-0  71095-4 0  9994
2 40300  97.3903 337.6783 0021580 138.0699 285.3623 15.21041986158661
NUDT-PHONESAT           
1 40900U 15049B   17258.91238522  .00004039  00000-0  19109-3 0  9996
2 40900  97.4443 265.5738 0011997 268.5365  91.4495 15.19876730110230
ZDPS 2A                 
1 40901U 15049C   17258.90730347  .00001593  00000-0  85228-4 0  9996
2 40901  97.4596 264.6782 0012168 271.4331  88.5508 15.16444304110086
ZDPS 2B                 
1 40902U 15049D   17259.50640078  .00001648  00000-0  88443-4 0  9998
2 40902  97.4472 263.7705 0012232 265.7039  94.2796 15.16277573110162
XW-2A                   
1 40903U 15049E   17259.54332321  .00003548  00000-0  93323-4 0  9996
2 40903  97.4166 286.3659 0013036 300.3883  59.6073 15.39188238111694
KAITUO 1A               
1 40904U 15049F   17259.42109381  .00001035  00000-0  59474-4 0  9990
2 40904  97.4563 263.2685 0013064 268.3407 226.9797 15.14638924110051
2015-049G               
1 40905U 15049G   17259.49825650  .00000842  00000-0  50358-4 0  9999
2 40905  97.4538 261.9029 0014264 256.3732 103.5911 15.13652464110010
XW-2C                   
1 40906U 15049H   17259.54392316  .00001226  00000-0  69659-4 0  9995
2 40906  97.4572 263.2246 0013520 257.0069 102.9653 15.14703925110061
XW-2D                   
1 40907U 15049J   17259.52082169  .00001294  00000-0  73102-4 0  9999
2 40907  97.4542 262.9429 0012895 254.8057 105.1749 15.14818977110069
LILACSAT 2              
1 40908U 15049K   17258.95010538  .00000694  00000-0  42652-4 0  9996
2 40908  97.4646 262.0705 0014509 256.1373 103.8244 15.13218865109896
XW-2F                   
1 40910U 15049M   17259.53422126  .00001857  00000-0  10058-3 0  9990
2 40910  97.4558 263.7877 0013674 251.5639 108.4108 15.15778803109980
XW-2B                   
1 40911U 15049N   17259.52927960  .00001261  00000-0  71436-4 0  9993
2 40911  97.4584 263.3727 0012805 255.2796 104.7018 15.14776705109965
